STARLINK-1665           
1 46356U 20062AH  26176.87393440  .03360969  11982-4  98151-3 0  9992
2 46356  53.0199 153.8215 0004236 234.0487 126.0161 16.26574659321971
STARLINK-1666           
1 46357U 20062AJ  26176.91668980  .00281443  00000+0  10124-2 0  9995
2 46357  53.0305 157.9476 0006050  50.0804 263.1089 15.87420242  5942
STARLINK-1707           
1 46359U 20062AL  26176.91668980  .00398073  76480-4  86988-3 0  9997
2 46359  53.0126  93.0767 0002788 139.1845 201.9493 15.97687651  5923
STARLINK-1724           
1 46375U 20062BC  26176.55008777  .00128678  00000+0  89029-3 0  9998
2 46375  53.0199 118.3388 0004082  26.5370 333.5856 15.73629475322440
STARLINK-1770           
1 46383U 20062BL  26176.88171369  .00132035  00000+0  65752-3 0  9990
2 46383  53.0363 139.1242 0004240  21.6185 338.5014 15.81018642322187
STARLINK-1771           
1 46384U 20062BM  26176.24339935  .00049024  00000+0  51498-3 0  9993
2 46384  53.0354 185.7885 0004222  48.6159 311.5217 15.63864053321470
STARLINK-1663           
1 46535U 20070D   26176.84949225  .01035819  66414-3  97651-3 0  9999
2 46535  53.0250 312.8202 0010222 318.9604  41.0660 16.11405816317175
STARLINK-1672           
1 46537U 20070F   26176.91668980  .00138711  00000+0  11374-2 0  9991
2 46537  53.0443 333.0756 0001223  14.3006 263.6308 15.69565878  5895
STARLINK-1678           
1 46538U 20070G   26176.91668980  .00331075  55117-4  77163-3 0  9993
2 46538  53.0285 291.4746 0009470 317.7987   9.5400 15.96468267  6060
STARLINK-1664           
1 46553U 20070X   26176.84896508  .00074783  00000+0  11935-2 0  9991
2 46553  53.0430 337.2898 0002546 219.4356 140.6468 15.52560024316848
STARLINK-1676           
1 46556U 20070AA  26176.91668980  .00158086  00000+0  98456-3 0  9996
2 46556  53.0360 335.7157 0001520  45.1567 340.3568 15.75961691  6029
STARLINK-1679           
1 46557U 20070AB  26176.91668980  .00362241  61320-4  10430-2 0  9999
2 46557  53.0366 308.0614 0007988 324.6225  29.6212 15.92535827  5891
STARLINK-1714           
1 46562U 20070AG  26176.78012059  .00152848  00000+0  95889-3 0  9995
2 46562  53.0363 307.0594 0001344 220.9116 139.1802 15.75812773317265
STARLINK-1730           
1 46563U 20070AH  26176.84134691  .00083295  00000+0  82094-3 0  9993
2 46563  53.0244 320.1874 0004359 316.2880  43.7789 15.65253871317088
STARLINK-1735           
1 46565U 20070AK  26176.91668980  .00521794  13198-3  92930-3 0  9993
2 46565  53.0285 299.2269 0009847 329.4465  97.9592 16.01166866  5817
STARLINK-1741           
1 46567U 20070AM  26176.72681271  .00876267  41474-3  11485-2 0  9993
2 46567  53.0292 297.2386 0010460 326.7782  33.2592 16.06264494317393
STARLINK-1531           
1 46572U 20070AS  26176.91668980  .00655821  21038-3  11044-2 0  9998
2 46572  53.0407 318.3952 0013180 297.7073 315.3271 16.02038025  6021
STARLINK-1728           
1 46582U 20070BC  26176.83988755  .00190329  00000+0  98246-3 0  9994
2 46582  53.0326 314.4859 0004733 327.0328  33.0397 15.80050267317169
STARLINK-1716           
1 46672U 20073C   26176.79033556  .01642183  24201-2  10794-2 0  9996
2 46672  53.0279  18.6532 0009260 275.2084  84.7895 16.17003841314799
STARLINK-1718           
1 46674U 20073E   26176.87028488  .00156851  00000+0  82088-3 0  9990
2 46674  53.0410  55.4785 0003409 226.5218 133.5520 15.79856642314288
STARLINK-1781           
1 46685U 20073R   26176.85881583  .00141294  00000+0  85061-3 0  9992
2 46685  53.0416  71.4380 0001495  50.5365 309.5786 15.76789276314055
STARLINK-1784           
1 46687U 20073T   26176.91668980  .00487836  10908-3  11403-2 0  9990
2 46687  53.0330   7.5238 0008175 279.6826 216.1031 15.96390337  5952
STARLINK-1788           
1 46689U 20073V   26176.91668980  .00398902  73061-4  10987-2 0  9993
2 46689  53.0294  39.1888 0002791 224.6428 344.1668 15.93417902  6067
STARLINK-1797           
1 46698U 20073AE  26176.86033207  .00097030  00000+0  73819-3 0  9995
2 46698  53.0399  39.2082 0004465 106.5382 253.6126 15.71517867314519
STARLINK-1802           
1 46702U 20073AJ  26176.03921359  .00045330  00000+0  11322-2 0  9990
2 46702  53.1550  75.0735 0003630  86.3563 273.7857 15.39730083313960
STARLINK-1805           
1 46705U 20073AM  26176.91668980  .00023232  00000+0  15221-3 0  9998
2 46705  53.0425  74.4341 0001066 119.5952 170.2534 15.75699954  5963
STARLINK-1807           
1 46706U 20073AN  26176.04352455  .00035575  00000+0  11339-2 0  9998
2 46706  53.0560  90.1729 0004124  94.6076 265.5396 15.32219739313730
STARLINK-1810           
1 46709U 20073AR  26176.43275222  .00127081  00000+0  11909-2 0  9997
2 46709  53.0389  69.7575 0005256 103.7602 256.3998 15.66318369314044
STARLINK-1817           
1 46715U 20073AX  26176.91668980  .00366936  64613-4  91078-3 0  9999
2 46715  53.0400  38.8181 0007125 253.6814 269.1432 15.95334985  5992
STARLINK-1821           
1 46718U 20073BA  26176.85394450  .00110680  00000+0  16863-2 0  9999
2 46718  53.0421  71.0140 0003255 153.7371 206.3804 15.53660858314073
