OBJECT_NAME,OBJECT_ID,EPOCH,MEAN_MOTION,ECCENTRICITY,INCLINATION,RA_OF_ASC_NODE,ARG_OF_PERICENTER,MEAN_ANOMALY,EPHEMERIS_TYPE,CLASSIFICATION_TYPE,NORAD_CAT_ID,ELEMENT_SET_NO,REV_AT_EPOCH,BSTAR,MEAN_MOTION_DOT,MEAN_MOTION_DDOT
STARLINK-1665,2020-062AH,2026-06-25T20:58:27.932160,16.26574659,.0004236,53.0199,153.8215,234.0487,126.0161,0,U,46356,999,32197,.98151E-3,.3360969E-1,.11982E-4
STARLINK-1666,2020-062AJ,2026-06-25T22:00:01.998720,15.87420242,.000605,53.0305,157.9476,50.0804,263.1089,0,U,46357,999,594,.10124E-2,.281443E-2,0
STARLINK-1707,2020-062AL,2026-06-25T22:00:01.998720,15.97687651,.0002788,53.0126,93.0767,139.1845,201.9493,0,U,46359,999,592,.86988E-3,.398073E-2,.7648E-4
STARLINK-1724,2020-062BC,2026-06-25T13:12:07.583328,15.73629475,.0004082,53.0199,118.3388,26.5370,333.5856,0,U,46375,999,32244,.89029E-3,.128678E-2,0
STARLINK-1770,2020-062BL,2026-06-25T21:09:40.062816,15.81018642,.000424,53.0363,139.1242,21.6185,338.5014,0,U,46383,999,32218,.65752E-3,.132035E-2,0
STARLINK-1771,2020-062BM,2026-06-25T05:50:29.703840,15.63864053,.0004222,53.0354,185.7885,48.6159,311.5217,0,U,46384,999,32147,.51498E-3,.49024E-3,0
STARLINK-1663,2020-070D,2026-06-25T20:23:16.130400,16.11405816,.0010222,53.0250,312.8202,318.9604,41.0660,0,U,46535,999,31717,.97651E-3,.1035819E-1,.66414E-3
STARLINK-1672,2020-070F,2026-06-25T22:00:01.998720,15.69565878,.0001223,53.0443,333.0756,14.3006,263.6308,0,U,46537,999,589,.11374E-2,.138711E-2,0
STARLINK-1678,2020-070G,2026-06-25T22:00:01.998720,15.96468267,.000947,53.0285,291.4746,317.7987,9.5400,0,U,46538,999,606,.77163E-3,.331075E-2,.55117E-4
STARLINK-1664,2020-070X,2026-06-25T20:22:30.582912,15.52560024,.0002546,53.0430,337.2898,219.4356,140.6468,0,U,46553,999,31684,.11935E-2,.74783E-3,0
STARLINK-1676,2020-070AA,2026-06-25T22:00:01.998720,15.75961691,.000152,53.0360,335.7157,45.1567,340.3568,0,U,46556,999,602,.98456E-3,.158086E-2,0
STARLINK-1679,2020-070AB,2026-06-25T22:00:01.998720,15.92535827,.0007988,53.0366,308.0614,324.6225,29.6212,0,U,46557,999,589,.1043E-2,.362241E-2,.6132E-4
STARLINK-1714,2020-070AG,2026-06-25T18:43:22.418976,15.75812773,.0001344,53.0363,307.0594,220.9116,139.1802,0,U,46562,999,31726,.95889E-3,.152848E-2,0
STARLINK-1730,2020-070AH,2026-06-25T20:11:32.373024,15.65253871,.0004359,53.0244,320.1874,316.2880,43.7789,0,U,46563,999,31708,.82094E-3,.83295E-3,0
STARLINK-1735,2020-070AK,2026-06-25T22:00:01.998720,16.01166866,.0009847,53.0285,299.2269,329.4465,97.9592,0,U,46565,999,581,.9293E-3,.521794E-2,.13198E-3
STARLINK-1741,2020-070AM,2026-06-25T17:26:36.618144,16.06264494,.001046,53.0292,297.2386,326.7782,33.2592,0,U,46567,999,31739,.11485E-2,.876267E-2,.41474E-3
STARLINK-1531,2020-070AS,2026-06-25T22:00:01.998720,16.02038025,.001318,53.0407,318.3952,297.7073,315.3271,0,U,46572,999,602,.11044E-2,.655821E-2,.21038E-3
STARLINK-1728,2020-070BC,2026-06-25T20:09:26.284320,15.80050267,.0004733,53.0326,314.4859,327.0328,33.0397,0,U,46582,999,31716,.98246E-3,.190329E-2,0
STARLINK-1716,2020-073C,2026-06-25T18:58:04.992384,16.17003841,.000926,53.0279,18.6532,275.2084,84.7895,0,U,46672,999,31479,.10794E-2,.1642183E-1,.24201E-2
STARLINK-1718,2020-073E,2026-06-25T20:53:12.613632,15.79856642,.0003409,53.0410,55.4785,226.5218,133.5520,0,U,46674,999,31428,.82088E-3,.156851E-2,0
STARLINK-1781,2020-073R,2026-06-25T20:36:41.687712,15.76789276,.0001495,53.0416,71.4380,50.5365,309.5786,0,U,46685,999,31405,.85061E-3,.141294E-2,0
STARLINK-1784,2020-073T,2026-06-25T22:00:01.998720,15.96390337,.0008175,53.0330,7.5238,279.6826,216.1031,0,U,46687,999,595,.11403E-2,.487836E-2,.10908E-3
STARLINK-1788,2020-073V,2026-06-25T22:00:01.998720,15.93417902,.0002791,53.0294,39.1888,224.6428,344.1668,0,U,46689,999,606,.10987E-2,.398902E-2,.73061E-4
STARLINK-1797,2020-073AE,2026-06-25T20:38:52.690848,15.71517867,.0004465,53.0399,39.2082,106.5382,253.6126,0,U,46698,999,31451,.73819E-3,.9703E-3,0
STARLINK-1802,2020-073AJ,2026-06-25T00:56:28.054176,15.39730083,.00036307,53.1550,75.0735,86.3563,273.7857,0,U,46702,999,31396,.11322392E-2,.4533E-3,0
STARLINK-1805,2020-073AM,2026-06-25T22:00:01.998720,15.75699954,.0001066,53.0425,74.4341,119.5952,170.2534,0,U,46705,999,596,.15221E-3,.23232E-3,0
STARLINK-1807,2020-073AN,2026-06-25T01:02:40.521120,15.32219739,.00041245,53.0560,90.1729,94.6076,265.5396,0,U,46706,999,31373,.11338968E-2,.35575E-3,0
STARLINK-1810,2020-073AR,2026-06-25T10:23:09.791808,15.66318369,.0005256,53.0389,69.7575,103.7602,256.3998,0,U,46709,999,31404,.11909E-2,.127081E-2,0
STARLINK-1817,2020-073AX,2026-06-25T22:00:01.998720,15.95334985,.0007125,53.0400,38.8181,253.6814,269.1432,0,U,46715,999,599,.91078E-3,.366936E-2,.64613E-4
STARLINK-1821,2020-073BA,2026-06-25T20:29:40.804800,15.53660858,.0003255,53.0421,71.0140,153.7371,206.3804,0,U,46718,999,31407,.16863E-2,.11068E-2,0
